{
  "type": "FeatureCollection",
  "features": [
    {
      "type": "Feature",
      "properties": {
        "norad_id": 31773,
        "name": "FENGYUN 1C DEB",
        "group": "fengyun-1c-debris",
        "lat": -23.3749028899219,
        "lon": 169.24492028889503,
        "alt_km": 646.3716724014794,
        "timestamp": "2025-12-26T19:22:39.190804+00:00",
        "meta_object_name": "FENGYUN 1C DEB",
        "meta_object_id": "1999-025CFY",
        "meta_epoch": "2025-12-23T05:41:28.848480",
        "meta_mean_motion": 14.730751,
        "meta_eccentricity": 0.00397514,
        "meta_inclination": 98.95,
        "meta_ra_of_asc_node": 349.2185,
        "meta_arg_of_pericenter": 145.6123,
        "meta_mean_anomaly": 214.7666,
        "meta_ephemeris_type": 0,
        "meta_classification_type": "U",
        "meta_norad_cat_id": 31773,
        "meta_element_set_no": 999,
        "meta_rev_at_epoch": 65329,
        "meta_bstar": 0.0018495953,
        "meta_mean_motion_dot": 0.00012007,
        "meta_mean_motion_ddot": 0,
        "tle_line1": "1 31773U 99025CFY 25357.23713945  .00012007  00000+0  18496-2 0  9991",
        "tle_line2": "2 31773  98.9500 349.2185 0039751 145.6123 214.7666 14.73075100653298"
      },
      "geometry": {
        "type": "Point",
        "coordinates": [
          169.24492028889503,
          -23.3749028899219
        ]
      }
    },
    {
      "type": "Feature",
      "properties": {
        "norad_id": 31776,
        "name": "FENGYUN 1C DEB",
        "group": "fengyun-1c-debris",
        "lat": 45.83762548938596,
        "lon": 51.39944317626029,
        "alt_km": 840.7662233800611,
        "timestamp": "2025-12-26T19:22:39.190814+00:00",
        "meta_object_name": "FENGYUN 1C DEB",
        "meta_object_id": "1999-025CGB",
        "meta_epoch": "2025-12-22T03:34:27.360192",
        "meta_mean_motion": 14.18599127,
        "meta_eccentricity": 0.00542431,
        "meta_inclination": 99.0724,
        "meta_ra_of_asc_node": 56.1061,
        "meta_arg_of_pericenter": 307.3827,
        "meta_mean_anomaly": 81.1299,
        "meta_ephemeris_type": 0,
        "meta_classification_type": "U",
        "meta_norad_cat_id": 31776,
        "meta_element_set_no": 999,
        "meta_rev_at_epoch": 95014,
        "meta_bstar": 0.0013053929,
        "meta_mean_motion_dot": 2.697e-05,
        "meta_mean_motion_ddot": 0,
        "tle_line1": "1 31776U 99025CGB 25356.14892778  .00002697  00000+0  13054-2 0  9994",
        "tle_line2": "2 31776  99.0724  56.1061 0054243 307.3827  81.1299 14.18599127950140"
      },
      "geometry": {
        "type": "Point",
        "coordinates": [
          51.39944317626029,
          45.83762548938596
        ]
      }
    },
    {
      "type": "Feature",
      "properties": {
        "norad_id": 31779,
        "name": "FENGYUN 1C DEB",
        "group": "fengyun-1c-debris",
        "lat": 68.29371720802479,
        "lon": -102.27990349203883,
        "alt_km": 694.6880454985085,
        "timestamp": "2025-12-26T19:22:39.190824+00:00",
        "meta_object_name": "FENGYUN 1C DEB",
        "meta_object_id": "1999-025CGE",
        "meta_epoch": "2025-12-24T13:44:40.627680",
        "meta_mean_motion": 14.41620796,
        "meta_eccentricity": 0.02137749,
        "meta_inclination": 99.2994,
        "meta_ra_of_asc_node": 279.5931,
        "meta_arg_of_pericenter": 148.2012,
        "meta_mean_anomaly": 213.2292,
        "meta_ephemeris_type": 0,
        "meta_classification_type": "U",
        "meta_norad_cat_id": 31779,
        "meta_element_set_no": 999,
        "meta_rev_at_epoch": 97180,
        "meta_bstar": 0.00022659181,
        "meta_mean_motion_dot": 9.08e-06,
        "meta_mean_motion_ddot": 0,
        "tle_line1": "1 31779U 99025CGE 25358.57269245  .00000908  00000+0  22659-3 0  9998",
        "tle_line2": "2 31779  99.2994 279.5931 0213774 148.2012 213.2292 14.41620796971805"
      },
      "geometry": {
        "type": "Point",
        "coordinates": [
          -102.27990349203883,
          68.29371720802479
        ]
      }
    },
    {
      "type": "Feature",
      "properties": {
        "norad_id": 31780,
        "name": "FENGYUN 1C DEB",
        "group": "fengyun-1c-debris",
        "lat": 6.844805012359171,
        "lon": 154.23832656786072,
        "alt_km": 558.7482868477691,
        "timestamp": "2025-12-26T19:22:39.190834+00:00",
        "meta_object_name": "FENGYUN 1C DEB",
        "meta_object_id": "1999-025CGF",
        "meta_epoch": "2025-12-24T16:41:30.727392",
        "meta_mean_motion": 14.69579133,
        "meta_eccentricity": 0.01502728,
        "meta_inclination": 99.2879,
        "meta_ra_of_asc_node": 152.9633,
        "meta_arg_of_pericenter": 16.5747,
        "meta_mean_anomaly": 344.029,
        "meta_ephemeris_type": 0,
        "meta_classification_type": "U",
        "meta_norad_cat_id": 31780,
        "meta_element_set_no": 999,
        "meta_rev_at_epoch": 98673,
        "meta_bstar": 0.00022856233,
        "meta_mean_motion_dot": 1.54e-05,
        "meta_mean_motion_ddot": 0,
        "tle_line1": "1 31780U 99025CGF 25358.69549453  .00001540  00000+0  22856-3 0  9997",
        "tle_line2": "2 31780  99.2879 152.9633 0150272  16.5747 344.0290 14.69579133986734"
      },
      "geometry": {
        "type": "Point",
        "coordinates": [
          154.23832656786072,
          6.844805012359171
        ]
      }
    },
    {
      "type": "Feature",
      "properties": {
        "norad_id": 31781,
        "name": "FENGYUN 1C DEB",
        "group": "fengyun-1c-debris",
        "lat": 23.32206429338825,
        "lon": -3.29045868807603,
        "alt_km": 816.2136384737432,
        "timestamp": "2025-12-26T19:22:39.190844+00:00",
        "meta_object_name": "FENGYUN 1C DEB",
        "meta_object_id": "1999-025CGG",
        "meta_epoch": "2025-12-21T17:58:10.718688",
        "meta_mean_motion": 14.13089707,
        "meta_eccentricity": 0.02036323,
        "meta_inclination": 99.4977,
        "meta_ra_of_asc_node": 167.2029,
        "meta_arg_of_pericenter": 248.9414,
        "meta_mean_anomaly": 108.9873,
        "meta_ephemeris_type": 0,
        "meta_classification_type": "U",
        "meta_norad_cat_id": 31781,
        "meta_element_set_no": 999,
        "meta_rev_at_epoch": 68475,
        "meta_bstar": 0.002913809,
        "meta_mean_motion_dot": 6.584e-05,
        "meta_mean_motion_ddot": 0,
        "tle_line1": "1 31781U 99025CGG 25355.74873517  .00006584  00000+0  29138-2 0  9994",
        "tle_line2": "2 31781  99.4977 167.2029 0203632 248.9414 108.9873 14.13089707684758"
      },
      "geometry": {
        "type": "Point",
        "coordinates": [
          -3.29045868807603,
          23.32206429338825
        ]
      }
    },
    {
      "type": "Feature",
      "properties": {
        "norad_id": 31782,
        "name": "FENGYUN 1C DEB",
        "group": "fengyun-1c-debris",
        "lat": -8.142132396991721,
        "lon": 163.75234107949942,
        "alt_km": 729.2023868298184,
        "timestamp": "2025-12-26T19:22:39.190855+00:00",
        "meta_object_name": "FENGYUN 1C DEB",
        "meta_object_id": "1999-025CGH",
        "meta_epoch": "2025-12-26T05:14:05.182656",
        "meta_mean_motion": 14.36263729,
        "meta_eccentricity": 0.00790051,
        "meta_inclination": 98.9045,
        "meta_ra_of_asc_node": 161.8583,
        "meta_arg_of_pericenter": 317.15,
        "meta_mean_anomaly": 229.0091,
        "meta_ephemeris_type": 0,
        "meta_classification_type": "U",
        "meta_norad_cat_id": 31782,
        "meta_element_set_no": 999,
        "meta_rev_at_epoch": 96884,
        "meta_bstar": 0.00040451754,
        "meta_mean_motion_dot": 1.176e-05,
        "meta_mean_motion_ddot": 0,
        "tle_line1": "1 31782U 99025CGH 25360.21811554  .00001176  00000+0  40452-3 0  9991",
        "tle_line2": "2 31782  98.9045 161.8583 0079005 317.1500 229.0091 14.36263729968849"
      },
      "geometry": {
        "type": "Point",
        "coordinates": [
          163.75234107949942,
          -8.142132396991721
        ]
      }
    },
    {
      "type": "Feature",
      "properties": {
        "norad_id": 31783,
        "name": "FENGYUN 1C DEB",
        "group": "fengyun-1c-debris",
        "lat": -56.661074715744405,
        "lon": 22.137067656109934,
        "alt_km": 841.3172294883516,
        "timestamp": "2025-12-26T19:22:39.190865+00:00",
        "meta_object_name": "FENGYUN 1C DEB",
        "meta_object_id": "1999-025CGJ",
        "meta_epoch": "2025-12-24T19:04:25.726080",
        "meta_mean_motion": 14.08851536,
        "meta_eccentricity": 0.01037929,
        "meta_inclination": 98.6048,
        "meta_ra_of_asc_node": 6.9084,
        "meta_arg_of_pericenter": 15.9575,
        "meta_mean_anomaly": 165.3181,
        "meta_ephemeris_type": 0,
        "meta_classification_type": "U",
        "meta_norad_cat_id": 31783,
        "meta_element_set_no": 999,
        "meta_rev_at_epoch": 89390,
        "meta_bstar": 0.00053741578,
        "meta_mean_motion_dot": 9.34e-06,
        "meta_mean_motion_ddot": 0,
        "tle_line1": "1 31783U 99025CGJ 25358.79474220  .00000934  00000+0  53742-3 0  9994",
        "tle_line2": "2 31783  98.6048   6.9084 0103792  15.9575 165.3181 14.08851536893905"
      },
      "geometry": {
        "type": "Point",
        "coordinates": [
          22.137067656109934,
          -56.661074715744405
        ]
      }
    }
  ]
}